{
    "links": {
        "self": "http://www.neowsapp.com/rest/v1/neo/3741440?api_key=iIulBulltgU6a56xZRHN4H3l9WmuAYTsLGpBGhQ2"
    },
    "id": "3741440",
    "neo_reference_id": "3741440",
    "name": "(2016 CL18)",
    "designation": "2016 CL18",
    "nasa_jpl_url": "http://ssd.jpl.nasa.gov/sbdb.cgi?sstr=3741440",
    "absolute_magnitude_h": 23.8,
    "estimated_diameter": {
        "kilometers": {
            "estimated_diameter_min": 0.046190746,
            "estimated_diameter_max": 0.1032856481
        },
        "meters": {
            "estimated_diameter_min": 46.1907460282,
            "estimated_diameter_max": 103.2856480504
        },
        "miles": {
            "estimated_diameter_min": 0.0287015901,
            "estimated_diameter_max": 0.0641787064
        },
        "feet": {
            "estimated_diameter_min": 151.544447199,
            "estimated_diameter_max": 338.8636855496
        }
    },
    "is_potentially_hazardous_asteroid": false,
    "close_approach_data": [
        {
            "close_approach_date": "2015-12-31",
            "close_approach_date_full": "2015-Dec-31 04:02",
            "epoch_date_close_approach": 1451534520000,
            "relative_velocity": {
                "kilometers_per_second": "9.633406024",
                "kilometers_per_hour": "34680.2616865535",
                "miles_per_hour": "21548.965935181"
            },
            "miss_distance": {
                "astronomical": "0.0774574574",
                "lunar": "30.1309509286",
                "kilometers": "11587470.642655738",
                "miles": "7200120.3833276644"
            },
            "orbiting_body": "Earth"
        }
    ],
    "orbital_data": {
        "orbit_id": "4",
        "orbit_determination_date": "2017-04-06 08:28:44",
        "first_observation_date": "2016-02-02",
        "last_observation_date": "2016-02-05",
        "data_arc_in_days": 3,
        "observations_used": 16,
        "orbit_uncertainty": "9",
        "minimum_orbit_intersection": ".0010674",
        "jupiter_tisserand_invariant": "4.714",
        "epoch_osculation": "2457422.5",
        "eccentricity": ".4380223548741032",
        "semi_major_axis": "1.372540926451183",
        "inclination": ".4095362114774337",
        "ascending_node_longitude": "277.9310160176234",
        "orbital_period": "587.335675922891",
        "perihelion_distance": ".7713373176859529",
        "perihelion_argument": "116.0228548764884",
        "aphelion_distance": "1.973744535216414",
        "perihelion_time": "2457341.209492977231",
        "mean_anomaly": "49.82599172477116",
        "mean_motion": ".6129373963778475",
        "equinox": "J2000",
        "orbit_class": {
            "orbit_class_type": "APO",
            "orbit_class_description": "Near-Earth asteroid orbits which cross the Earth’s orbit similar to that of 1862 Apollo",
            "orbit_class_range": "a (semi-major axis) > 1.0 AU; q (perihelion) < 1.017 AU"
        }
    },
    "is_sentry_object": false
}